{
  "norad_id": 51868,
  "name": "STARLINK-3578",
  "history": [
    {
      "epoch": "2026-03-28T21:53:47.015808Z",
      "apogee_km": 540.7249941582413,
      "perigee_km": 538.7774702631095,
      "latitude_deg": -3.5219319494709615e-05,
      "longitude_deg": 128.0582857647814,
      "height_km": 540.6503583391519,
      "semi_major_axis_km": 6917.888232210675,
      "eccentricity": 0.00014076,
      "inclination_deg": 53.218,
      "raan_deg": 282.8302,
      "arg_perigee_deg": 90.2011,
      "mean_anomaly_deg": 269.9142,
      "mean_motion_rev_day": 15.08837434
    },
    {
      "epoch": "2026-03-28T23:29:10.074048Z",
      "apogee_km": 540.6876069704267,
      "perigee_km": 538.8073259724397,
      "latitude_deg": 2.3976995125633933e-05,
      "longitude_deg": 103.84896551594181,
      "height_km": 540.6022315189026,
      "semi_major_axis_km": 6917.8844664714325,
      "eccentricity": 0.0001359,
      "inclination_deg": 53.2174,
      "raan_deg": 282.5322,
      "arg_perigee_deg": 87.5041,
      "mean_anomaly_deg": 272.6107,
      "mean_motion_rev_day": 15.08838666
    },
    {
      "epoch": "2026-03-29T05:50:42.678528Z",
      "apogee_km": 540.6758435246038,
      "perigee_km": 538.8265536513572,
      "latitude_deg": -1.454798726061893e-05,
      "longitude_deg": 7.012227804191621,
      "height_km": 540.6130828210106,
      "semi_major_axis_km": 6917.888198587981,
      "eccentricity": 0.00013366,
      "inclination_deg": 53.2173,
      "raan_deg": 281.3425,
      "arg_perigee_deg": 87.9022,
      "mean_anomaly_deg": 272.2123,
      "mean_motion_rev_day": 15.08837445
    },
    {
      "epoch": "2026-03-30T12:03:02.335104Z",
      "apogee_km": 540.695534549277,
      "perigee_km": 538.792563830265,
      "latitude_deg": -5.8536324845601587e-05,
      "longitude_deg": -92.95990050740355,
      "height_km": 540.6295954692539,
      "semi_major_axis_km": 6917.88104918977,
      "eccentricity": 0.00013754,
      "inclination_deg": 53.2172,
      "raan_deg": 275.6928,
      "arg_perigee_deg": 89.3902,
      "mean_anomaly_deg": 270.7247,
      "mean_motion_rev_day": 15.08839784
    },
    {
      "epoch": "2026-03-30T19:59:57.903648Z",
      "apogee_km": 540.6921901597225,
      "perigee_km": 538.7854852213377,
      "latitude_deg": -1.7016102912951633e-06,
      "longitude_deg": 145.995362188718,
      "height_km": 540.6178897822327,
      "semi_major_axis_km": 6917.87583769053,
      "eccentricity": 0.00013781,
      "inclination_deg": 53.2173,
      "raan_deg": 274.206,
      "arg_perigee_deg": 89.0011,
      "mean_anomaly_deg": 271.1139,
      "mean_motion_rev_day": 15.08841489
    },
    {
      "epoch": "2026-03-31T18:15:22.053024Z",
      "apogee_km": 540.6975493457994,
      "perigee_km": 538.7923646548406,
      "latitude_deg": 1.494524756147112e-05,
      "longitude_deg": 167.06760290199227,
      "height_km": 540.6076964842155,
      "semi_major_axis_km": 6917.88195700032,
      "eccentricity": 0.0001377,
      "inclination_deg": 53.2169,
      "raan_deg": 270.0429,
      "arg_perigee_deg": 88.0214,
      "mean_anomaly_deg": 272.0936,
      "mean_motion_rev_day": 15.08839487
    }
  ]
}